NORAD_CAT_ID,OBJECT_NAME,OBJECT_TYPE,EPOCH,MEAN_MOTION,ECCENTRICITY,INCLINATION,RA_OF_ASC_NODE,ARG_OF_PERICENTER,MEAN_ANOMALY,BSTAR,MEAN_MOTION_DOT,MEAN_MOTION_DDOT,TLE_LINE0,TLE_LINE1,TLE_LINE2,SEMIMAJOR_AXIS,PERIOD,APOGEE,PERIGEE,DECAYED
56788.0,STARLINK-6336,PAYLOAD,2024-07-18 22:12:31,14.98332755,0.0002667,70.0011,34.1852,264.0837,96.0018,7.875e-07,-8.4e-07,0.0,0 STARLINK-6336,1 56788U 23078X   24200.92535965 -.00000084  00000-0  78750-6 0  9992,2 56788  70.0011  34.1852 0002667 264.0837  96.0018 14.98332755 63481,6950.184,96.107,573.903,570.196,0.0
56788.0,STARLINK-6336,PAYLOAD,2024-07-19 14:13:51,14.98326869,0.0002736,70.0007,32.5016,264.7833,95.3014,6.8855e-05,7.29e-06,0.0,0 STARLINK-6336,1 56788U 23078X   24201.59296069  .00000729  00000-0  68855-4 0  9993,2 56788  70.0007  32.5016 0002736 264.7833  95.3014 14.98326869 63588,6950.203,96.107,573.969,570.166,0.0
56788.0,STARLINK-6336,PAYLOAD,2024-07-19 20:38:24,14.98328499,0.0002797,70.0006,31.8282,266.5261,93.5579,5.6638e-05,5.83e-06,0.0,0 STARLINK-6336,1 56788U 23078X   24201.86000050  .00000583  00000-0  56638-4 0  9990,2 56788  70.0006  31.8282 0002797 266.5261  93.5579 14.98328499 63886,6950.198,96.107,574.007,570.119,0.0
56788.0,STARLINK-6336,PAYLOAD,2024-07-19 22:14:31,14.98330718,0.0002788,70.0007,31.6599,266.8643,93.2197,7.9643e-05,8.57e-06,0.0,0 STARLINK-6336,1 56788U 23078X   24201.92675853  .00000857  00000-0  79643-4 0  9991,2 56788  70.0007  31.6599 0002788 266.8643  93.2197 14.98330718 63636,6950.191,96.107,573.993,570.118,0.0
56788.0,STARLINK-6336,PAYLOAD,2024-07-20 14:15:53,14.98326567,0.0002877,70.0006,29.9771,269.6448,90.4381,-1.955e-05,-3.26e-06,0.0,0 STARLINK-6336,1 56788U 23078X   24202.59436447 -.00000326  00000-0 -19550-4 0  9993,2 56788  70.0006  29.9771 0002877 269.6448  90.4381 14.98326567 63732,6950.204,96.107,574.068,570.069,0.0
56788.0,STARLINK-6336,PAYLOAD,2024-07-20 20:40:25,14.98327851,0.0002833,70.0007,29.3026,266.7822,93.3013,-1.9206e-05,-3.22e-06,0.0,0 STARLINK-6336,1 56788U 23078X   24202.86140395 -.00000322  00000-0 -19206-4 0  9991,2 56788  70.0007  29.3026 0002833 266.7822  93.3013 14.98327851 64031,6950.2,96.107,574.034,570.096,0.0
56788.0,STARLINK-6336,PAYLOAD,2024-07-20 22:16:33,14.98320162,0.0002992,70.0009,29.1342,269.9277,90.1539,0.00015879,1.802e-05,0.0,0 STARLINK-6336,1 56788U 23078X   24202.92816448  .00001802  00000-0  15879-3 0  9990,2 56788  70.0009  29.1342 0002992 269.9277  90.1539 14.98320162 63784,6950.223,96.108,574.168,570.009,0.0
56788.0,STARLINK-6336,PAYLOAD,2024-07-21 14:17:53,14.98331032,0.0003088,70.0006,27.4509,268.2681,91.8125,2.4807e-05,2.03e-06,0.0,0 STARLINK-6336,1 56788U 23078X   24203.59576001  .00000203  00000-0  24807-4 0  9998,2 56788  70.0006  27.4509 0003088 268.2681  91.8125 14.98331032 63883,6950.19,96.107,574.201,569.908,0.0
56788.0,STARLINK-6336,PAYLOAD,2024-07-21 20:42:25,14.98333871,0.0003116,70.0006,26.7776,269.0764,91.0038,3.9573e-05,3.79e-06,0.0,0 STARLINK-6336,1 56788U 23078X   24203.86279758  .00000379  00000-0  39573-4 0  9997,2 56788  70.0006  26.7776 0003116 269.0764  91.0038 14.98333871 64186,6950.181,96.107,574.212,569.88,0.0
56788.0,STARLINK-6336,PAYLOAD,2024-07-21 22:18:33,14.98334953,0.0003112,70.0006,26.6094,269.0196,91.0606,5.167e-05,5.24e-06,0.0,0 STARLINK-6336,1 56788U 23078X   24203.92955643  .00000524  00000-0  51670-4 0  9992,2 56788  70.0006  26.6094 0003112 269.0196  91.0606 14.98334953 63938,6950.178,96.107,574.205,569.88,0.0
56788.0,STARLINK-6336,PAYLOAD,2024-07-22 22:20:34,14.98331962,0.0003128,70.0006,24.0845,269.6702,90.4099,3.2894e-05,3e-06,0.0,0 STARLINK-6336,1 56788U 23078X   24204.93095717  .00000300  00000-0  32894-4 0  9990,2 56788  70.0006  24.0845 0003128 269.6702  90.4099 14.98331962 64083,6950.187,96.107,574.226,569.878,0.0
56788.0,STARLINK-6336,PAYLOAD,2024-07-23 04:45:06,14.98333592,0.0003022,70.0009,23.4112,271.1488,88.9325,2.3317e-05,1.85e-06,0.0,0 STARLINK-6336,1 56788U 23078X   24205.19799636  .00000185  00000-0  23317-4 0  9991,2 56788  70.0009  23.4112 0003022 271.1488  88.9325 14.98333592 64386,6950.182,96.107,574.147,569.946,0.0
56788.0,STARLINK-6336,PAYLOAD,2024-07-23 11:09:39,14.98330451,0.0002895,70.0012,22.7383,273.682,86.4008,-2.3254e-05,-3.7e-06,0.0,0 STARLINK-6336,1 56788U 23078X   24205.46503986 -.00000370  00000-0 -23254-4 0  9990,2 56788  70.0012  22.7383 0002895 273.6820  86.4008 14.98330451 64164,6950.191,96.107,574.069,570.044,0.0
56788.0,STARLINK-6336,PAYLOAD,2024-07-23 22:22:35,14.98331588,0.0002843,70.0013,21.5605,265.2233,94.8602,6.2912e-06,-1.8e-07,0.0,0 STARLINK-6336,1 56788U 23078X   24205.93235713 -.00000018  00000-0  62912-5 0  9995,2 56788  70.0013  21.5605 0002843 265.2233  94.8602 14.98331588 64230,6950.188,96.107,574.029,570.077,0.0
56788.0,STARLINK-6336,PAYLOAD,2024-07-25 11:13:41,14.98328156,0.0003018,70.0008,17.6897,264.565,95.5165,-2.2376e-05,-3.6e-06,0.0,0 STARLINK-6336,1 56788U 23078X   24207.46783879 -.00000360  00000-0 -22376-4 0  9996,2 56788  70.0008  17.6897 0003018 264.5650  95.5165 14.98328156 64726,6950.199,96.107,574.161,569.966,0.0
56788.0,STARLINK-6336,PAYLOAD,2024-07-26 11:15:42,14.98329005,0.0002968,70.001,15.1636,270.3784,89.7035,-1.5902e-05,-2.83e-06,0.0,0 STARLINK-6336,1 56788U 23078X   24208.46923853 -.00000283  00000-0 -15902-4 0  9996,2 56788  70.0010  15.1636 0002968 270.3784  89.7035 14.98329005 64870,6950.196,96.107,574.124,569.998,0.0
56788.0,STARLINK-6336,PAYLOAD,2024-07-26 20:52:30,14.98333184,0.0002924,69.9993,14.1525,269.5,90.5824,2.5004e-05,2.05e-06,0.0,0 STARLINK-6336,1 56788U 23078X   24208.86979554  .00000205  00000-0  25004-4 0  9995,2 56788  69.9993  14.1525 0002924 269.5000  90.5824 14.98333184 64673,6950.183,96.107,574.08,570.016,0.0
56788.0,STARLINK-6336,PAYLOAD,2024-07-27 04:53:10,14.98329463,0.0002854,69.9976,13.3104,269.1756,90.9076,-9.2889e-06,-2.04e-06,0.0,0 STARLINK-6336,1 56788U 23078X   24209.20359833 -.00000204  00000-0 -92889-5 0  9993,2 56788  69.9976  13.3104 0002854 269.1756  90.9076 14.98329463 64728,6950.195,96.107,574.043,570.076,0.0
56788.0,STARLINK-6336,PAYLOAD,2024-07-27 11:17:43,14.98328566,0.0002844,69.9979,12.6371,269.089,90.9943,-2.0329e-05,-3.36e-06,0.0,0 STARLINK-6336,1 56788U 23078X   24209.47063929 -.00000336  00000-0 -20329-4 0  9995,2 56788  69.9979  12.6371 0002844 269.0890  90.9943 14.98328566 65026,6950.197,96.107,574.039,570.086,0.0
56788.0,STARLINK-6336,PAYLOAD,2024-07-27 20:54:31,14.98328165,0.0002907,69.9988,11.6272,269.6797,90.4028,-2.4575e-05,-3.86e-06,0.0,0 STARLINK-6336,1 56788U 23078X   24209.87120008 -.00000386  00000-0 -24575-4 0  9993,2 56788  69.9988  11.6272 0002907 269.6797  90.4028 14.98328165 64828,6950.199,96.107,574.084,570.043,0.0
56788.0,STARLINK-6336,PAYLOAD,2024-07-28 12:55:51,14.98332767,0.0002921,70.0006,9.9441,270.2221,89.8603,3.3726e-05,3.09e-06,0.0,0 STARLINK-6336,1 56788U 23078X   24210.53879557  .00000309  00000-0  33726-4 0  9999,2 56788  70.0006   9.9441 0002921 270.2221  89.8603 14.98332767 65180,6950.184,96.107,574.079,570.019,0.0
56788.0,STARLINK-6336,PAYLOAD,2024-07-28 20:56:31,14.98336699,0.0002968,70.0013,9.1027,271.1294,88.9525,4.0012e-05,3.85e-06,0.0,0 STARLINK-6336,1 56788U 23078X   24210.87259231  .00000385  00000-0  40012-4 0  9997,2 56788  70.0013   9.1027 0002968 271.1294  88.9525 14.98336699 64978,6950.172,96.107,574.1,569.974,0.0
56788.0,STARLINK-6336,PAYLOAD,2024-07-29 09:45:36,14.98327656,0.000294,70.0015,7.757,274.8429,85.2394,3.0643e-05,2.73e-06,0.0,0 STARLINK-6336,1 56788U 23078X   24211.40667776  .00000273  00000-0  30643-4 0  9999,2 56788  70.0015   7.7570 0002940 274.8429  85.2394 14.98327656 65054,6950.2,96.107,574.108,570.022,0.0
56788.0,STARLINK-6336,PAYLOAD,2024-07-29 19:22:25,14.9833034,0.0002909,70.0016,6.7475,272.1047,87.9779,5.8121e-05,6.01e-06,0.0,0 STARLINK-6336,1 56788U 23078X   24211.80723520  .00000601  00000-0  58121-4 0  9999,2 56788  70.0016   6.7475 0002909 272.1047  87.9779 14.98330340 65375,6950.192,96.107,574.079,570.035,0.0
56788.0,STARLINK-6336,PAYLOAD,2024-07-30 09:47:37,14.98333005,0.0002774,70.0019,5.2323,269.9206,90.1635,-6.9893e-06,-1.76e-06,0.0,0 STARLINK-6336,1 56788U 23078X   24212.40807486 -.00000176  00000-0 -69893-5 0  9998,2 56788  70.0019   5.2323 0002774 269.9206  90.1635 14.98333005 65205,6950.184,96.107,573.977,570.121,0.0
56788.0,STARLINK-6336,PAYLOAD,2024-07-30 21:00:33,14.98335312,0.0002776,70.0019,4.0543,268.6169,91.4672,1.9135e-05,1.35e-06,0.0,0 STARLINK-6336,1 56788U 23078X   24212.87539121  .00000135  00000-0  19135-4 0  9993,2 56788  70.0019   4.0543 0002776 268.6169  91.4672 14.98335312 65277,6950.176,96.107,573.971,570.112,0.0
56788.0,STARLINK-6336,PAYLOAD,2024-07-31 03:25:06,14.9833229,0.0002914,70.0009,3.3806,266.9862,93.0963,-6.7383e-05,-8.97e-06,0.0,0 STARLINK-6336,1 56788U 23078X   24213.14243437 -.00000897  00000-0 -67383-4 0  9991,2 56788  70.0009   3.3806 0002914 266.9862  93.0963 14.98332290 65571,6950.186,96.107,574.076,570.026,0.0
56788.0,STARLINK-6336,PAYLOAD,2024-07-31 13:01:55,14.98323356,0.0002693,70.0016,2.3724,272.3794,87.7057,-0.00017008,-2.121e-05,0.0,0 STARLINK-6336,1 56788U 23078X   24213.54300507 -.00002121  00000-0 -17008-3 0  9997,2 56788  70.0016   2.3724 0002693 272.3794  87.7057 14.98323356 65630,6950.213,96.107,573.95,570.207,0.0
56788.0,STARLINK-6336,PAYLOAD,2024-07-31 14:38:04,14.98316147,0.0003054,70.0011,2.2029,270.9553,89.1256,-0.00015411,-1.931e-05,0.0,0 STARLINK-6336,1 56788U 23078X   24213.60976907 -.00001931  00000-0 -15411-3 0  9991,2 56788  70.0011   2.2029 0003054 270.9553  89.1256 14.98316147 65380,6950.236,96.108,574.223,569.978,0.0
56788.0,STARLINK-6336,PAYLOAD,2024-07-31 19:26:28,14.98317564,0.0002985,70.0012,1.6977,271.3903,88.6914,-0.00012134,-1.54e-05,0.0,0 STARLINK-6336,1 56788U 23078X   24213.81004890 -.00001540  00000-0 -12134-3 0  9992,2 56788  70.0012   1.6977 0002985 271.3903  88.6914 14.98317564 65415,6950.231,96.108,574.171,570.022,0.0
